[
    {
        "Altitude(m)": 717302.7415576574,
        "Argument of Periapsis(deg)": 0.004556048474650827,
        "Eccentricity": 0.0,
        "Inclination(deg)": 45.0,
        "Latitude(deg)": -43.75249565460462,
        "Longitude(deg)": 142.48762609990843,
        "Mean Anomaly(deg)": -77.20491334100763,
        "RAAN(deg)": 314.99569922341675,
        "Satellite Name": "Constellation 1 1403",
        "Satellite Number": 1403,
        "Semi-Major Axis(m)": 7083131.272910544,
        "Time(s)": 76
    },
    {
        "Altitude(m)": 717297.3100399199,
        "Argument of Periapsis(deg)": 0.004615996480896233,
        "Eccentricity": 0.0,
        "Inclination(deg)": 45.0,
        "Latitude(deg)": -43.73936878845077,
        "Longitude(deg)": 142.56514544942792,
        "Mean Anomaly(deg)": -77.14421220075779,
        "RAAN(deg)": 314.99564263425117,
        "Satellite Name": "Constellation 1 1403",
        "Satellite Number": 1403,
        "Semi-Major Axis(m)": 7083131.272910544,
        "Time(s)": 77
    },
    {
        "Altitude(m)": 717291.8542688406,
        "Argument of Periapsis(deg)": 0.004675944487141638,
        "Eccentricity": 0.0,
        "Inclination(deg)": 45.0,
        "Latitude(deg)": -43.726183635845764,
        "Longitude(deg)": 142.6426291427529,
        "Mean Anomaly(deg)": -77.08351106050785,
        "RAAN(deg)": 314.99558604508553,
        "Satellite Name": "Constellation 1 1403",
        "Satellite Number": 1403,
        "Semi-Major Axis(m)": 7083131.272910544,
        "Time(s)": 78
    },
    {
        "Altitude(m)": 717286.3742644966,
        "Argument of Periapsis(deg)": 0.004735892493387044,
        "Eccentricity": 0.0,
        "Inclination(deg)": 45.0,
        "Latitude(deg)": -43.71294024849317,
        "Longitude(deg)": 142.72007705424357,
        "Mean Anomaly(deg)": -77.02280992025791,
        "RAAN(deg)": 314.99552945592,
        "Satellite Name": "Constellation 1 1403",
        "Satellite Number": 1403,
        "Semi-Major Axis(m)": 7083131.272910544,
        "Time(s)": 79
    },
    {
        "Altitude(m)": 717280.870047042,
        "Argument of Periapsis(deg)": 0.004795840499632449,
        "Eccentricity": 0.0,
        "Inclination(deg)": 45.0,
        "Latitude(deg)": -43.69963867826705,
        "Longitude(deg)": 142.79748905879094,
        "Mean Anomaly(deg)": -76.96210878000807,
        "RAAN(deg)": 314.9954728667544,
        "Satellite Name": "Constellation 1 1403",
        "Satellite Number": 1403,
        "Semi-Major Axis(m)": 7083131.272910544,
        "Time(s)": 80
    },
    {
        "Altitude(m)": 717275.341636736,
        "Argument of Periapsis(deg)": 0.004855788505877855,
        "Eccentricity": 0.0,
        "Inclination(deg)": 45.0,
        "Latitude(deg)": -43.68627897721109,
        "Longitude(deg)": 142.87486503181873,
        "Mean Anomaly(deg)": -76.90140763975823,
        "RAAN(deg)": 314.9954162775889,
        "Satellite Name": "Constellation 1 1403",
        "Satellite Number": 1403,
        "Semi-Major Axis(m)": 7083131.272910544,
        "Time(s)": 81
    },
    {
        "Altitude(m)": 717269.7890539113,
        "Argument of Periapsis(deg)": 0.00491573651212326,
        "Eccentricity": 0.0,
        "Inclination(deg)": 45.0,
        "Latitude(deg)": -43.67286119753747,
        "Longitude(deg)": 142.95220468118708,
        "Mean Anomaly(deg)": -76.84070649950824,
        "RAAN(deg)": 314.9953596884233,
        "Satellite Name": "Constellation 1 1403",
        "Satellite Number": 1403,
        "Semi-Major Axis(m)": 7083131.272910544,
        "Time(s)": 82
    },
    {
        "Altitude(m)": 717264.2123189978,
        "Argument of Periapsis(deg)": 0.004975684518368666,
        "Eccentricity": 0.0,
        "Inclination(deg)": 45.0,
        "Latitude(deg)": -43.65938539162692,
        "Longitude(deg)": 143.02950821958032,
        "Mean Anomaly(deg)": -76.78000535925835,
        "RAAN(deg)": 314.9953030992577,
        "Satellite Name": "Constellation 1 1403",
        "Satellite Number": 1403,
        "Semi-Major Axis(m)": 7083131.272910544,
        "Time(s)": 83
    },
    {
        "Altitude(m)": 717258.6114525194,
        "Argument of Periapsis(deg)": 0.005035632524614072,
        "Eccentricity": 0.0,
        "Inclination(deg)": 45.0,
        "Latitude(deg)": -43.64585161202647,
        "Longitude(deg)": 143.10677535592734,
        "Mean Anomaly(deg)": -76.71930421900854,
        "RAAN(deg)": 314.99524651009216,
        "Satellite Name": "Constellation 1 1403",
        "Satellite Number": 1403,
        "Semi-Major Axis(m)": 7083131.272910544,
        "Time(s)": 84
    },
    {
        "Altitude(m)": 717252.9864750691,
        "Argument of Periapsis(deg)": 0.0050955805308594785,
        "Eccentricity": 0.0,
        "Inclination(deg)": 45.0,
        "Latitude(deg)": -43.63225991144935,
        "Longitude(deg)": 143.18400596779006,
        "Mean Anomaly(deg)": -76.65860307875853,
        "RAAN(deg)": 314.9951899209266,
        "Satellite Name": "Constellation 1 1403",
        "Satellite Number": 1403,
        "Semi-Major Axis(m)": 7083131.272910544,
        "Time(s)": 85
    },
    {
        "Altitude(m)": 717247.3374073504,
        "Argument of Periapsis(deg)": 0.005155528537104883,
        "Eccentricity": 0.0,
        "Inclination(deg)": 45.0,
        "Latitude(deg)": -43.61861034277418,
        "Longitude(deg)": 143.26119993326643,
        "Mean Anomaly(deg)": -76.5979019385087,
        "RAAN(deg)": 314.99513333176105,
        "Satellite Name": "Constellation 1 1403",
        "Satellite Number": 1403,
        "Semi-Major Axis(m)": 7083131.272910544,
        "Time(s)": 86
    },
    {
        "Altitude(m)": 717241.6642701421,
        "Argument of Periapsis(deg)": 0.0052154765433502885,
        "Eccentricity": 0.0,
        "Inclination(deg)": 45.0,
        "Latitude(deg)": -43.604902959043656,
        "Longitude(deg)": 143.33835713099245,
        "Mean Anomaly(deg)": -76.53720079825877,
        "RAAN(deg)": 314.9950767425955,
        "Satellite Name": "Constellation 1 1403",
        "Satellite Number": 1403,
        "Semi-Major Axis(m)": 7083131.272910544,
        "Time(s)": 87
    },
    {
        "Altitude(m)": 717235.9670843031,
        "Argument of Periapsis(deg)": 0.005275424549595694,
        "Eccentricity": 0.0,
        "Inclination(deg)": 45.0,
        "Latitude(deg)": -43.59113781346402,
        "Longitude(deg)": 143.41547744014187,
        "Mean Anomaly(deg)": -76.47649965800888,
        "RAAN(deg)": 314.99502015342983,
        "Satellite Name": "Constellation 1 1403",
        "Satellite Number": 1403,
        "Semi-Major Axis(m)": 7083131.272910544,
        "Time(s)": 88
    },
    {
        "Altitude(m)": 717230.2458708065,
        "Argument of Periapsis(deg)": 0.0053353725558411,
        "Eccentricity": 0.0,
        "Inclination(deg)": 45.0,
        "Latitude(deg)": -43.577314959403814,
        "Longitude(deg)": 143.4925605723311,
        "Mean Anomaly(deg)": -76.41579851775899,
        "RAAN(deg)": 314.9949635642643,
        "Satellite Name": "Constellation 1 1403",
        "Satellite Number": 1403,
        "Semi-Major Axis(m)": 7083131.272910544,
        "Time(s)": 89
    },
    {
        "Altitude(m)": 717224.5006506852,
        "Argument of Periapsis(deg)": 0.005395320562086505,
        "Eccentricity": 0.0,
        "Inclination(deg)": 45.0,
        "Latitude(deg)": -43.56343445039381,
        "Longitude(deg)": 143.5696067440067,
        "Mean Anomaly(deg)": -76.35509737750915,
        "RAAN(deg)": 314.99490697509873,
        "Satellite Name": "Constellation 1 1403",
        "Satellite Number": 1403,
        "Semi-Major Axis(m)": 7083131.272910544,
        "Time(s)": 90
    },
    {
        "Altitude(m)": 717218.7314450741,
        "Argument of Periapsis(deg)": 0.00545526856833191,
        "Eccentricity": 0.0,
        "Inclination(deg)": 45.0,
        "Latitude(deg)": -43.54949634012482,
        "Longitude(deg)": 143.64661566786552,
        "Mean Anomaly(deg)": -76.29439623725922,
        "RAAN(deg)": 314.9948503859332,
        "Satellite Name": "Constellation 1 1403",
        "Satellite Number": 1403,
        "Semi-Major Axis(m)": 7083131.272910544,
        "Time(s)": 91
    },
    {
        "Altitude(m)": 717212.9382751951,
        "Argument of Periapsis(deg)": 0.005515216574577317,
        "Eccentricity": 0.0,
        "Inclination(deg)": 45.0,
        "Latitude(deg)": -43.535500682447854,
        "Longitude(deg)": 143.72358722524237,
        "Mean Anomaly(deg)": -76.23369509700923,
        "RAAN(deg)": 314.9947937967676,
        "Satellite Name": "Constellation 1 1403",
        "Satellite Number": 1403,
        "Semi-Major Axis(m)": 7083131.272910544,
        "Time(s)": 92
    },
    {
        "Altitude(m)": 717207.1211623574,
        "Argument of Periapsis(deg)": 0.005575164580822722,
        "Eccentricity": 0.0,
        "Inclination(deg)": 45.0,
        "Latitude(deg)": -43.52144753137275,
        "Longitude(deg)": 143.800521298014,
        "Mean Anomaly(deg)": -76.1729939567594,
        "RAAN(deg)": 314.99473720760204,
        "Satellite Name": "Constellation 1 1403",
        "Satellite Number": 1403,
        "Semi-Major Axis(m)": 7083131.272910544,
        "Time(s)": 93
    },
    {
        "Altitude(m)": 717201.2801279516,
        "Argument of Periapsis(deg)": 0.005635112587068129,
        "Eccentricity": 0.0,
        "Inclination(deg)": 45.0,
        "Latitude(deg)": -43.507336941067464,
        "Longitude(deg)": 143.87741776860034,
        "Mean Anomaly(deg)": -76.11229281650951,
        "RAAN(deg)": 314.99468061843646,
        "Satellite Name": "Constellation 1 1403",
        "Satellite Number": 1403,
        "Semi-Major Axis(m)": 7083131.272910544,
        "Time(s)": 94
    }
]